{"type":"FeatureCollection","features":[{"type":"Feature","properties":{"id":"2526","route_id":"320","trip_id":"4451226","stop_id":"8695","stop_sequence":1,"bearing":0.0,"timestamp":1787346633},"geometry":{"type":"Point","coordinates":[-63.515708923339844,44.885860443115234]}},{"type":"Feature","properties":{"id":"2528","route_id":"320","trip_id":"4451200","stop_id":"8030","stop_sequence":3,"bearing":336.0,"timestamp":1787346633},"geometry":{"type":"Point","coordinates":[-63.55860900878906,44.72288131713867]}},{"type":"Feature","properties":{"id":"2529","route_id":"320","trip_id":"4451201","stop_id":"6108","stop_sequence":1,"bearing":156.0,"timestamp":1787346633},"geometry":{"type":"Point","coordinates":[-63.575748443603516,44.650428771972656]}},{"type":"Feature","properties":{"id":"2530","route_id":"330","trip_id":"4451263","stop_id":"6108","stop_sequence":1,"bearing":135.0,"timestamp":1787346633},"geometry":{"type":"Point","coordinates":[-63.578128814697266,44.650840759277344]}},{"type":"Feature","properties":{"id":"2534","route_id":"320","trip_id":"4451225","stop_id":"7610","stop_sequence":10,"bearing":156.0,"timestamp":1787346633},"geometry":{"type":"Point","coordinates":[-63.56172180175781,44.726890563964844]}},{"type":"Feature","properties":{"id":"2717","route_id":"9B","trip_id":"4459161","stop_id":"2348","stop_sequence":74,"bearing":160.0,"timestamp":1787346633},"geometry":{"type":"Point","coordinates":[-63.585838317871094,44.646018981933594]}},{"type":"Feature","properties":{"id":"2720","route_id":"9A","trip_id":"4458955","stop_id":"2348","stop_sequence":58,"bearing":90.0,"timestamp":1787346633},"geometry":{"type":"Point","coordinates":[-63.58293914794922,44.6413688659668]}},{"type":"Feature","properties":{"id":"2721","route_id":"1","trip_id":"4446808","stop_id":"7605","stop_sequence":1,"bearing":119.0,"timestamp":1787346633},"geometry":{"type":"Point","coordinates":[-63.57448959350586,44.6709098815918]}},{"type":"Feature","properties":{"id":"2722","route_id":"1","trip_id":"4446703","stop_id":"8640","stop_sequence":1,"bearing":270.0,"timestamp":1787346633},"geometry":{"type":"Point","coordinates":[-63.620399475097656,44.647850036621094]}},{"type":"Feature","properties":{"id":"2726","route_id":"1","trip_id":"4446702","stop_id":"8640","stop_sequence":1,"bearing":300.0,"timestamp":1787346633},"geometry":{"type":"Point","coordinates":[-63.620819091796875,44.64812088012695]}},{"type":"Feature","properties":{"id":"2731","route_id":"9A","trip_id":"4458893","stop_id":"6859","stop_sequence":53,"bearing":140.0,"timestamp":1787346633},"geometry":{"type":"Point","coordinates":[-63.60533905029297,44.59907150268555]}},{"type":"Feature","properties":{"id":"2732","route_id":"90","trip_id":"4458459","stop_id":"8435","stop_sequence":63,"bearing":316.0,"timestamp":1787346633},"geometry":{"type":"Point","coordinates":[-63.57318878173828,44.64957809448242]}},{"type":"Feature","properties":{"id":"2733","route_id":"10A","trip_id":"4446909","stop_id":"6087","stop_sequence":18,"bearing":315.0,"timestamp":1787346633},"geometry":{"type":"Point","coordinates":[-63.57868957519531,44.64020919799805]}},{"type":"Feature","properties":{"id":"2735","route_id":"10B","trip_id":"4447198","stop_id":"6107","stop_sequence":18,"bearing":135.0,"timestamp":1787346633},"geometry":{"type":"Point","coordinates":[-63.57830810546875,44.65277099609375]}},{"type":"Feature","properties":{"id":"2737","route_id":"90","trip_id":"4458480","stop_id":"2236","stop_sequence":1,"bearing":45.0,"timestamp":1787346633},"geometry":{"type":"Point","coordinates":[-63.69778060913086,44.72306823730469]}},{"type":"Feature","properties":{"id":"2739","route_id":"1","trip_id":"4446805","stop_id":"6448","stop_sequence":18,"bearing":257.0,"timestamp":1787346633},"geometry":{"type":"Point","coordinates":[-63.58871078491211,44.6396598815918]}},{"type":"Feature","properties":{"id":"2742","route_id":"4","trip_id":"4451883","stop_id":"6032","stop_sequence":29,"bearing":312.0,"timestamp":1787346633},"geometry":{"type":"Point","coordinates":[-63.60758972167969,44.657039642333984]}},{"type":"Feature","properties":{"id":"2743","route_id":"8","trip_id":"4457026","stop_id":"2348","stop_sequence":84,"bearing":315.0,"timestamp":1787346633},"geometry":{"type":"Point","coordinates":[-63.5731086730957,44.64522933959961]}},{"type":"Feature","properties":{"id":"2745","route_id":"4","trip_id":"4451884","stop_id":"8571","stop_sequence":22,"bearing":315.0,"timestamp":1787346633},"geometry":{"type":"Point","coordinates":[-63.602500915527344,44.65420913696289]}},{"type":"Feature","properties":{"id":"2746","route_id":"2","trip_id":"4448539","stop_id":"7351","stop_sequence":38,"bearing":45.0,"timestamp":1787346633},"geometry":{"type":"Point","coordinates":[-63.60287857055664,44.64897155761719]}},{"type":"Feature","properties":{"id":"2748","route_id":"1","trip_id":"4446807","stop_id":"6107","stop_sequence":8,"bearing":132.0,"timestamp":1787346633},"geometry":{"type":"Point","coordinates":[-63.58837127685547,44.65562057495117]}},{"type":"Feature","properties":{"id":"2749","route_id":"1","trip_id":"4446806","stop_id":"6107","stop_sequence":8,"bearing":160.0,"timestamp":1787346633},"geometry":{"type":"Point","coordinates":[-63.575191497802734,44.64952850341797]}},{"type":"Feature","properties":{"id":"2751","route_id":"10C","trip_id":"4447466","stop_id":"8162","stop_sequence":58,"bearing":0.0,"timestamp":1787346633},"geometry":{"type":"Point","coordinates":[-63.537349700927734,44.681129455566406]}},{"type":"Feature","properties":{"id":"2754","route_id":"1","trip_id":"4446699","stop_id":"6087","stop_sequence":29,"bearing":320.0,"timestamp":1787346633},"geometry":{"type":"Point","coordinates":[-63.57661819458008,44.6515007019043]}},{"type":"Feature","properties":{"id":"2755","route_id":"3","trip_id":"4450449","stop_id":"8640","stop_sequence":42,"bearing":224.0,"timestamp":1787346633},"geometry":{"type":"Point","coordinates":[-63.600650787353516,44.650611877441406]}},{"type":"Feature","properties":{"id":"2758","route_id":"4","trip_id":"4451966","stop_id":"9103","stop_sequence":1,"bearing":220.0,"timestamp":1787346633},"geometry":{"type":"Point","coordinates":[-63.66292190551758,44.66078186035156]}},{"type":"Feature","properties":{"id":"3095","route_id":"9B","trip_id":"4459162","stop_id":"6866","stop_sequence":34,"bearing":316.0,"timestamp":1787346633},"geometry":{"type":"Point","coordinates":[-63.60564041137695,44.59933090209961]}},{"type":"Feature","properties":{"id":"3097","route_id":"8","trip_id":"4457027","stop_id":"8183","stop_sequence":73,"bearing":104.0,"timestamp":1787346633},"geometry":{"type":"Point","coordinates":[-63.61759948730469,44.65161895751953]}},{"type":"Feature","properties":{"id":"3112","route_id":"53","trip_id":"4453026","stop_id":"7615","stop_sequence":6,"bearing":315.0,"timestamp":1787346633},"geometry":{"type":"Point","coordinates":[-63.574520111083984,44.66815948486328]}},{"type":"Feature","properties":{"id":"3113","route_id":"183","trip_id":"4447952","stop_id":"8515","stop_sequence":10,"bearing":32.0,"timestamp":1787346633},"geometry":{"type":"Point","coordinates":[-63.61565017700195,44.673519134521484]}},{"type":"Feature","properties":{"id":"3116","route_id":"51B","trip_id":"4452831","stop_id":"6014","stop_sequence":1,"bearing":156.0,"timestamp":1787346633},"geometry":{"type":"Point","coordinates":[-63.60749053955078,44.69887161254883]}},{"type":"Feature","properties":{"id":"3122","route_id":"4","trip_id":"4451965_1","stop_id":"2016","stop_sequence":19,"bearing":120.0,"timestamp":1787346633},"geometry":{"type":"Point","coordinates":[-63.62007141113281,44.660438537597656]}},{"type":"Feature","properties":{"id":"3122","route_id":"4","trip_id":"4451965_1","stop_id":"2016","stop_sequence":19,"bearing":120.0,"timestamp":1787346633},"geometry":{"type":"Point","coordinates":[-63.62007141113281,44.660438537597656]}},{"type":"Feature","properties":{"id":"3135","route_id":"137","trip_id":"4447694","stop_id":"6087","stop_sequence":9,"bearing":225.0,"timestamp":1787346633},"geometry":{"type":"Point","coordinates":[-63.61021041870117,44.66530990600586]}},{"type":"Feature","properties":{"id":"3138","route_id":"4","trip_id":"4451964","stop_id":"7144","stop_sequence":43,"bearing":135.0,"timestamp":1787346633},"geometry":{"type":"Point","coordinates":[-63.58687973022461,44.64044952392578]}},{"type":"Feature","properties":{"id":"3139","route_id":"29","trip_id":"4450059","stop_id":"6107","stop_sequence":32,"bearing":124.0,"timestamp":1787346633},"geometry":{"type":"Point","coordinates":[-63.57878875732422,44.65306854248047]}},{"type":"Feature","properties":{"id":"3152","route_id":"330","trip_id":"4451262","stop_id":"7618","stop_sequence":6,"bearing":300.0,"timestamp":1787346633},"geometry":{"type":"Point","coordinates":[-63.761009216308594,44.661949157714844]}},{"type":"Feature","properties":{"id":"3153","route_id":"5","trip_id":"4452440","stop_id":"8954","stop_sequence":28,"bearing":72.0,"timestamp":1787346633},"geometry":{"type":"Point","coordinates":[-63.53670120239258,44.67036819458008]}},{"type":"Feature","properties":{"id":"3158","route_id":"64","trip_id":"4454574","stop_id":"8141","stop_sequence":38,"bearing":135.0,"timestamp":1787346633},"geometry":{"type":"Point","coordinates":[-63.58924102783203,44.68449020385742]}},{"type":"Feature","properties":{"id":"3160","route_id":"24","trip_id":"4449315","stop_id":"7143","stop_sequence":1,"bearing":184.0,"timestamp":1787346633},"geometry":{"type":"Point","coordinates":[-63.63825988769531,44.63676071166992]}},{"type":"Feature","properties":{"id":"3161","route_id":"24","trip_id":"4449313","stop_id":"6965","stop_sequence":59,"bearing":72.0,"timestamp":1787346633},"geometry":{"type":"Point","coordinates":[-63.5872917175293,44.635929107666016]}},{"type":"Feature","properties":{"id":"3162","route_id":"9A","trip_id":"4458957","stop_id":"8641","stop_sequence":35,"bearing":332.0,"timestamp":1787346633},"geometry":{"type":"Point","coordinates":[-63.61650848388672,44.62826156616211]}},{"type":"Feature","properties":{"id":"3163","route_id":"72","trip_id":"4455710","stop_id":"8953","stop_sequence":1,"bearing":344.0,"timestamp":1787346633},"geometry":{"type":"Point","coordinates":[-63.52626037597656,44.67633819580078]}},{"type":"Feature","properties":{"id":"3165","route_id":"25","trip_id":"4449499","stop_id":"8641","stop_sequence":1,"bearing":108.0,"timestamp":1787346633},"geometry":{"type":"Point","coordinates":[-63.617008209228516,44.646400451660156]}},{"type":"Feature","properties":{"id":"3166","route_id":"10A","trip_id":"4446930","stop_id":"7144","stop_sequence":23,"bearing":270.0,"timestamp":1787346633},"geometry":{"type":"Point","coordinates":[-63.57556915283203,44.64337158203125]}},{"type":"Feature","properties":{"id":"3170","route_id":"161","trip_id":"4447796","stop_id":"7102","stop_sequence":43,"bearing":0.0,"timestamp":1787346633},"geometry":{"type":"Point","coordinates":[-63.46670913696289,44.70399856567383]}},{"type":"Feature","properties":{"id":"3171","route_id":"10B","trip_id":"4447160","stop_id":"8171","stop_sequence":35,"bearing":45.0,"timestamp":1787346633},"geometry":{"type":"Point","coordinates":[-63.5788688659668,44.67818069458008]}},{"type":"Feature","properties":{"id":"3172","route_id":"9A","trip_id":"4458896","stop_id":"8640","stop_sequence":20,"bearing":315.0,"timestamp":1787346633},"geometry":{"type":"Point","coordinates":[-63.620548248291016,44.6479606628418]}},{"type":"Feature","properties":{"id":"3173","route_id":"39","trip_id":"4451525","stop_id":"7608","stop_sequence":1,"bearing":308.0,"timestamp":1787346633},"geometry":{"type":"Point","coordinates":[-63.58600997924805,44.682891845703125]}},{"type":"Feature","properties":{"id":"3175","route_id":"10C","trip_id":"4447470","stop_id":"6965","stop_sequence":5,"bearing":135.0,"timestamp":1787346633},"geometry":{"type":"Point","coordinates":[-63.58502960205078,44.63671875]}},{"type":"Feature","properties":{"id":"3176","route_id":"64","trip_id":"4454576","stop_id":"6014","stop_sequence":1,"bearing":135.0,"timestamp":1787346633},"geometry":{"type":"Point","coordinates":[-63.607540130615234,44.69902038574219]}},{"type":"Feature","properties":{"id":"3177","route_id":"72","trip_id":"4455739","stop_id":"9076","stop_sequence":36,"bearing":135.0,"timestamp":1787346633},"geometry":{"type":"Point","coordinates":[-63.53667068481445,44.6805305480957]}},{"type":"Feature","properties":{"id":"3178","route_id":"54","trip_id":"4453229","stop_id":"6835","stop_sequence":17,"bearing":160.0,"timestamp":1787346633},"geometry":{"type":"Point","coordinates":[-63.53310012817383,44.69218826293945]}},{"type":"Feature","properties":{"id":"3179","route_id":"433","trip_id":"4452069","stop_id":"2237","stop_sequence":28,"bearing":8.0,"timestamp":1787346633},"geometry":{"type":"Point","coordinates":[-63.71607971191406,44.7164192199707]}},{"type":"Feature","properties":{"id":"3181","route_id":"3","trip_id":"4450451","stop_id":"8241","stop_sequence":13,"bearing":140.0,"timestamp":1787346633},"geometry":{"type":"Point","coordinates":[-63.58306884765625,44.6939697265625]}},{"type":"Feature","properties":{"id":"3185","route_id":"21","trip_id":"4448769","stop_id":"9106","stop_sequence":1,"bearing":135.0,"timestamp":1787346633},"geometry":{"type":"Point","coordinates":[-63.676029205322266,44.651180267333984]}},{"type":"Feature","properties":{"id":"3187","route_id":"25","trip_id":"4449524","stop_id":"8641","stop_sequence":27,"bearing":308.0,"timestamp":1787346633},"geometry":{"type":"Point","coordinates":[-63.61056137084961,44.63315963745117]}},{"type":"Feature","properties":{"id":"3189","route_id":"2","trip_id":"4448541","stop_id":"9104","stop_sequence":1,"bearing":196.0,"timestamp":1787346633},"geometry":{"type":"Point","coordinates":[-63.662689208984375,44.660888671875]}},{"type":"Feature","properties":{"id":"3190","route_id":"90","trip_id":"4458460","stop_id":"8183","stop_sequence":53,"bearing":108.0,"timestamp":1787346633},"geometry":{"type":"Point","coordinates":[-63.592491149902344,44.650779724121094]}},{"type":"Feature","properties":{"id":"3191","route_id":"168A","trip_id":"4447842","stop_id":"6087","stop_sequence":9,"bearing":315.0,"timestamp":1787346633},"geometry":{"type":"Point","coordinates":[-63.575870513916016,44.65071105957031]}},{"type":"Feature","properties":{"id":"3194","route_id":"8","trip_id":"4456977","stop_id":"6219","stop_sequence":33,"bearing":0.0,"timestamp":1787346633},"geometry":{"type":"Point","coordinates":[-63.62919998168945,44.65776062011719]}},{"type":"Feature","properties":{"id":"3196","route_id":"10C","trip_id":"4447469","stop_id":"7613","stop_sequence":26,"bearing":36.0,"timestamp":1787346633},"geometry":{"type":"Point","coordinates":[-63.58164978027344,44.666969299316406]}},{"type":"Feature","properties":{"id":"3203","route_id":"24","trip_id":"4449314","stop_id":"7143","stop_sequence":1,"bearing":45.0,"timestamp":1787346633},"geometry":{"type":"Point","coordinates":[-63.61479949951172,44.615638732910156]}},{"type":"Feature","properties":{"id":"3206","route_id":"10C","trip_id":"4447468","stop_id":"8171","stop_sequence":35,"bearing":135.0,"timestamp":1787346633},"geometry":{"type":"Point","coordinates":[-63.56079864501953,44.68539810180664]}},{"type":"Feature","properties":{"id":"3224","route_id":"91","trip_id":"4458637","stop_id":"2235","stop_sequence":1,"bearing":108.0,"timestamp":1787346633},"geometry":{"type":"Point","coordinates":[-63.67831039428711,44.715091705322266]}},{"type":"Feature","properties":{"id":"3216","route_id":"39","trip_id":"4451495","stop_id":"9102","stop_sequence":1,"bearing":324.0,"timestamp":1787346633},"geometry":{"type":"Point","coordinates":[-63.67148971557617,44.66524124145508]}},{"type":"Feature","properties":{"id":"3219","route_id":"7A","trip_id":"4456195","stop_id":"8184","stop_sequence":17,"bearing":160.0,"timestamp":1787346633},"geometry":{"type":"Point","coordinates":[-63.5706901550293,44.64044189453125]}},{"type":"Feature","properties":{"id":"3220","route_id":"168B","trip_id":"4447866_1","stop_id":"8940","stop_sequence":13,"bearing":56.0,"timestamp":1787346633},"geometry":{"type":"Point","coordinates":[-63.56563186645508,44.664119720458984]}},{"type":"Feature","properties":{"id":"3220","route_id":"168B","trip_id":"4447866_1","stop_id":"8940","stop_sequence":13,"bearing":56.0,"timestamp":1787346633},"geometry":{"type":"Point","coordinates":[-63.56563186645508,44.664119720458984]}},{"type":"Feature","properties":{"id":"3225","route_id":"90","trip_id":"4458412","stop_id":"2236","stop_sequence":56,"bearing":315.0,"timestamp":1787346633},"geometry":{"type":"Point","coordinates":[-63.7023811340332,44.71434020996094]}},{"type":"Feature","properties":{"id":"3228","route_id":"84","trip_id":"4457494","stop_id":"2034","stop_sequence":11,"bearing":340.0,"timestamp":1787346633},"geometry":{"type":"Point","coordinates":[-63.606998443603516,44.698219299316406]}},{"type":"Feature","properties":{"id":"3231","route_id":"28","trip_id":"4449787","stop_id":"9105","stop_sequence":1,"bearing":0.0,"timestamp":1787346633},"geometry":{"type":"Point","coordinates":[-63.6639404296875,44.660640716552734]}},{"type":"Feature","properties":{"id":"3233","route_id":"1","trip_id":"4446700","stop_id":"6452","stop_sequence":19,"bearing":135.0,"timestamp":1787346633},"geometry":{"type":"Point","coordinates":[-63.59675979614258,44.63777160644531]}},{"type":"Feature","properties":{"id":"3235","route_id":"10C","trip_id":"4447471","stop_id":"7144","stop_sequence":1,"bearing":340.0,"timestamp":1787346633},"geometry":{"type":"Point","coordinates":[-63.58961868286133,44.63595962524414]}},{"type":"Feature","properties":{"id":"3239","route_id":"6C","trip_id":"4455520","stop_id":"7474","stop_sequence":28,"bearing":128.0,"timestamp":1787346633},"geometry":{"type":"Point","coordinates":[-63.535831451416016,44.6421012878418]}},{"type":"Feature","properties":{"id":"3240","route_id":"4","trip_id":"4451885","stop_id":"8184","stop_sequence":16,"bearing":328.0,"timestamp":1787346633},"geometry":{"type":"Point","coordinates":[-63.57978057861328,44.64223098754883]}},{"type":"Feature","properties":{"id":"3241","route_id":"39","trip_id":"4451494","stop_id":"7608","stop_sequence":36,"bearing":128.0,"timestamp":1787346633},"geometry":{"type":"Point","coordinates":[-63.58013153076172,44.67702865600586]}},{"type":"Feature","properties":{"id":"3242","route_id":"2","trip_id":"4448540","stop_id":"6564","stop_sequence":19,"bearing":45.0,"timestamp":1787346633},"geometry":{"type":"Point","coordinates":[-63.63190841674805,44.66054916381836]}},{"type":"Feature","properties":{"id":"3244","route_id":"3","trip_id":"4450511","stop_id":"7351","stop_sequence":34,"bearing":124.0,"timestamp":1787346633},"geometry":{"type":"Point","coordinates":[-63.61663818359375,44.6462287902832]}},{"type":"Feature","properties":{"id":"3248","route_id":"87","trip_id":"4458057","stop_id":"8140","stop_sequence":29,"bearing":132.0,"timestamp":1787346633},"geometry":{"type":"Point","coordinates":[-63.5992317199707,44.69390869140625]}},{"type":"Feature","properties":{"id":"3250","route_id":"90","trip_id":"4458413","stop_id":"6219","stop_sequence":25,"bearing":292.0,"timestamp":1787346633},"geometry":{"type":"Point","coordinates":[-63.612728118896484,44.66014099121094]}},{"type":"Feature","properties":{"id":"3254","route_id":"401","trip_id":"4452019","stop_id":"8909","stop_sequence":46,"bearing":100.0,"timestamp":1787346633},"geometry":{"type":"Point","coordinates":[-63.28313064575195,44.74399185180664]}},{"type":"Feature","properties":{"id":"3208","route_id":"2","trip_id":"4448538","stop_id":"6107","stop_sequence":43,"bearing":135.0,"timestamp":1787346633},"geometry":{"type":"Point","coordinates":[-63.578338623046875,44.65277099609375]}},{"type":"Feature","properties":{"id":"3263","route_id":"8","trip_id":"4456976","stop_id":"6238","stop_sequence":62,"bearing":32.0,"timestamp":1787346633},"geometry":{"type":"Point","coordinates":[-63.665279388427734,44.7275390625]}},{"type":"Feature","properties":{"id":"3265","route_id":"53","trip_id":"4453061","stop_id":"6021","stop_sequence":10,"bearing":40.0,"timestamp":1787346633},"geometry":{"type":"Point","coordinates":[-63.5873908996582,44.68473815917969]}},{"type":"Feature","properties":{"id":"3272","route_id":"3","trip_id":"4450508","stop_id":"6014","stop_sequence":63,"bearing":248.0,"timestamp":1787346633},"geometry":{"type":"Point","coordinates":[-63.60462188720703,44.698551177978516]}},{"type":"Feature","properties":{"id":"3280","route_id":"433","trip_id":"4452064","stop_id":"6601","stop_sequence":39,"bearing":135.0,"timestamp":1787346633},"geometry":{"type":"Point","coordinates":[-63.6975212097168,44.6970100402832]}},{"type":"Feature","properties":{"id":"3285","route_id":"63","trip_id":"4454413","stop_id":"8955","stop_sequence":32,"bearing":270.0,"timestamp":1787346633},"geometry":{"type":"Point","coordinates":[-63.494388580322266,44.671531677246094]}},{"type":"Feature","properties":{"id":"3289","route_id":"192","trip_id":"4448051","stop_id":"2192","stop_sequence":26,"bearing":160.0,"timestamp":1787346633},"geometry":{"type":"Point","coordinates":[-63.656009674072266,44.73093032836914]}},{"type":"Feature","properties":{"id":"3290","route_id":"8","trip_id":"4456975","stop_id":"8961","stop_sequence":81,"bearing":320.0,"timestamp":1787346633},"geometry":{"type":"Point","coordinates":[-63.6690788269043,44.758880615234375]}},{"type":"Feature","properties":{"id":"3296","route_id":"2","trip_id":"4448477","stop_id":"8641","stop_sequence":20,"bearing":224.0,"timestamp":1787346633},"geometry":{"type":"Point","coordinates":[-63.59056854248047,44.658050537109375]}},{"type":"Feature","properties":{"id":"3298","route_id":"127","trip_id":"4447607","stop_id":"2206","stop_sequence":28,"bearing":315.0,"timestamp":1787346633},"geometry":{"type":"Point","coordinates":[-63.62036895751953,44.6148681640625]}},{"type":"Feature","properties":{"id":"3300","route_id":"8","trip_id":"4457028","stop_id":"6236","stop_sequence":19,"bearing":200.0,"timestamp":1787346633},"geometry":{"type":"Point","coordinates":[-63.65542984008789,44.73480987548828]}},{"type":"Feature","properties":{"id":"3305","route_id":"10B","trip_id":"4447197","stop_id":"6107","stop_sequence":18,"bearing":270.0,"timestamp":1787346633},"geometry":{"type":"Point","coordinates":[-63.5901985168457,44.63639831542969]}},{"type":"Feature","properties":{"id":"3202","route_id":"84","trip_id":"4457518","stop_id":"6105","stop_sequence":38,"bearing":212.0,"timestamp":1787346633},"geometry":{"type":"Point","coordinates":[-63.61663818359375,44.67264175415039]}},{"type":"Feature","properties":{"id":"3211","route_id":"185","trip_id":"4447994","stop_id":"7233","stop_sequence":22,"bearing":340.0,"timestamp":1787346633},"geometry":{"type":"Point","coordinates":[-63.69675827026367,44.77048873901367]}},{"type":"Feature","properties":{"id":"3247","route_id":"10B","trip_id":"4447161","stop_id":"6087","stop_sequence":18,"bearing":0.0,"timestamp":1787346633},"geometry":{"type":"Point","coordinates":[-63.57577896118164,44.650421142578125]}},{"type":"Feature","properties":{"id":"3249","route_id":"3","trip_id":"4450512","stop_id":"9110","stop_sequence":1,"bearing":108.0,"timestamp":1787346633},"geometry":{"type":"Point","coordinates":[-63.64670944213867,44.66413116455078]}},{"type":"Feature","properties":{"id":"3258","route_id":"87","trip_id":"4458026","stop_id":"6297","stop_sequence":23,"bearing":316.0,"timestamp":1787346633},"geometry":{"type":"Point","coordinates":[-63.65850830078125,44.7480583190918]}},{"type":"Feature","properties":{"id":"3284","route_id":"3","trip_id":"4450507","stop_id":"6014","stop_sequence":63,"bearing":164.0,"timestamp":1787346633},"geometry":{"type":"Point","coordinates":[-63.60771942138672,44.6992301940918]}},{"type":"Feature","properties":{"id":"3293","route_id":"8","trip_id":"4457025","stop_id":"2348","stop_sequence":84,"bearing":0.0,"timestamp":1787346633},"geometry":{"type":"Point","coordinates":[-63.5861701965332,44.640159606933594]}},{"type":"Feature","properties":{"id":"3313","route_id":"183","trip_id":"4447951","stop_id":"8342","stop_sequence":33,"bearing":270.0,"timestamp":1787346633},"geometry":{"type":"Point","coordinates":[-63.71443176269531,44.78083038330078]}},{"type":"Feature","properties":{"id":"3350","route_id":"10C","trip_id":"4447514","stop_id":"6107","stop_sequence":26,"bearing":124.0,"timestamp":1787346633},"geometry":{"type":"Point","coordinates":[-63.58417892456055,44.656288146972656]}},{"type":"Feature","properties":{"id":"3339","route_id":"54","trip_id":"4453206","stop_id":"8171","stop_sequence":15,"bearing":144.0,"timestamp":1787346633},"geometry":{"type":"Point","coordinates":[-63.56769943237305,44.663848876953125]}},{"type":"Feature","properties":{"id":"3354","route_id":"64","trip_id":"4454540","stop_id":"6014","stop_sequence":36,"bearing":244.0,"timestamp":1787346633},"geometry":{"type":"Point","coordinates":[-63.59666061401367,44.71276092529297]}},{"type":"Feature","properties":{"id":"3355","route_id":"5","trip_id":"4452511","stop_id":"8954","stop_sequence":1,"bearing":337.0,"timestamp":1787346633},"geometry":{"type":"Point","coordinates":[-63.50537872314453,44.669830322265625]}},{"type":"Feature","properties":{"id":"3358","route_id":"72","trip_id":"4455708","stop_id":"2290","stop_sequence":57,"bearing":184.0,"timestamp":1787346633},"geometry":{"type":"Point","coordinates":[-63.56924057006836,44.71284866333008]}},{"type":"Feature","properties":{"id":"3232","route_id":"185","trip_id":"4447995","stop_id":"2348","stop_sequence":7,"bearing":340.0,"timestamp":1787346633},"geometry":{"type":"Point","coordinates":[-63.5754508972168,44.64960861206055]}},{"type":"Feature","properties":{"id":"3260","route_id":"8","trip_id":"4456978","stop_id":"8184","stop_sequence":12,"bearing":160.0,"timestamp":1787346633},"geometry":{"type":"Point","coordinates":[-63.572750091552734,44.64458084106445]}},{"type":"Feature","properties":{"id":"3336","route_id":"123","trip_id":"4447568","stop_id":"6160","stop_sequence":12,"bearing":204.0,"timestamp":1787346633},"geometry":{"type":"Point","coordinates":[-63.61994171142578,44.64236068725586]}},{"type":"Feature","properties":{"id":"3348","route_id":"6A","trip_id":"4455142","stop_id":"7470","stop_sequence":13,"bearing":0.0,"timestamp":1787346633},"geometry":{"type":"Point","coordinates":[-63.49296188354492,44.69784927368164]}},{"type":"Feature","properties":{"id":"3366","route_id":"192","trip_id":"4448052","stop_id":"9092","stop_sequence":12,"bearing":340.0,"timestamp":1787346633},"geometry":{"type":"Point","coordinates":[-63.67272186279297,44.65393829345703]}},{"type":"Feature","properties":{"id":"3368","route_id":"1","trip_id":"4446701","stop_id":"8640","stop_sequence":1,"bearing":135.0,"timestamp":1787346633},"geometry":{"type":"Point","coordinates":[-63.60054016113281,44.64495849609375]}},{"type":"Feature","properties":{"id":"3373","route_id":"30B","trip_id":"4451001","stop_id":"9111","stop_sequence":1,"bearing":90.0,"timestamp":1787346633},"geometry":{"type":"Point","coordinates":[-63.66373825073242,44.66073989868164]}},{"type":"Feature","properties":{"id":"3379","route_id":"88","trip_id":"4458173","stop_id":"8505","stop_sequence":19,"bearing":28.0,"timestamp":1787346633},"geometry":{"type":"Point","coordinates":[-63.66184997558594,44.75511932373047]}},{"type":"Feature","properties":{"id":"3383","route_id":"7B","trip_id":"4456671","stop_id":"8183","stop_sequence":17,"bearing":135.0,"timestamp":1787346633},"geometry":{"type":"Point","coordinates":[-63.595428466796875,44.65502166748047]}},{"type":"Feature","properties":{"id":"3384","route_id":"7B","trip_id":"4456670","stop_id":"6087","stop_sequence":33,"bearing":340.0,"timestamp":1787346633},"geometry":{"type":"Point","coordinates":[-63.57577133178711,44.65047073364258]}},{"type":"Feature","properties":{"id":"3385","route_id":"5","trip_id":"4452442","stop_id":"6105","stop_sequence":1,"bearing":137.0,"timestamp":1787346633},"geometry":{"type":"Point","coordinates":[-63.576290130615234,44.65116882324219]}},{"type":"Feature","properties":{"id":"3387","route_id":"51B","trip_id":"4452818","stop_id":"8074","stop_sequence":21,"bearing":272.0,"timestamp":1787346633},"geometry":{"type":"Point","coordinates":[-63.60179138183594,44.68598175048828]}},{"type":"Feature","properties":{"id":"3394","route_id":"4","trip_id":"4451963","stop_id":"7144","stop_sequence":43,"bearing":135.0,"timestamp":1787346633},"geometry":{"type":"Point","coordinates":[-63.57625961303711,44.634849548339844]}},{"type":"Feature","properties":{"id":"3399","route_id":"5","trip_id":"4452509","stop_id":"6105","stop_sequence":22,"bearing":308.0,"timestamp":1787346633},"geometry":{"type":"Point","coordinates":[-63.57664108276367,44.66960906982422]}},{"type":"Feature","properties":{"id":"3402","route_id":"91","trip_id":"4458636","stop_id":"8640","stop_sequence":50,"bearing":270.0,"timestamp":1787346633},"geometry":{"type":"Point","coordinates":[-63.62992858886719,44.65364074707031]}},{"type":"Feature","properties":{"id":"3245","route_id":"136","trip_id":"4447669","stop_id":"9113","stop_sequence":27,"bearing":90.0,"timestamp":1787346633},"geometry":{"type":"Point","coordinates":[-63.6627197265625,44.66128921508789]}},{"type":"Feature","properties":{"id":"3252","route_id":"3","trip_id":"4450509","stop_id":"8141","stop_sequence":47,"bearing":45.0,"timestamp":1787346633},"geometry":{"type":"Point","coordinates":[-63.586158752441406,44.677730560302734]}},{"type":"Feature","properties":{"id":"3261","route_id":"87","trip_id":"4458058","stop_id":"8961","stop_sequence":1,"bearing":76.0,"timestamp":1787346633},"geometry":{"type":"Point","coordinates":[-63.6993293762207,44.76763153076172]}},{"type":"Feature","properties":{"id":"3357","route_id":"138","trip_id":"4447722","stop_id":"8220","stop_sequence":1,"bearing":344.0,"timestamp":1787346633},"geometry":{"type":"Point","coordinates":[-63.58422088623047,44.63533020019531]}},{"type":"Feature","properties":{"id":"3405","route_id":"10B","trip_id":"4447199","stop_id":"6107","stop_sequence":18,"bearing":308.0,"timestamp":1787346633},"geometry":{"type":"Point","coordinates":[-63.576568603515625,44.66957092285156]}},{"type":"Feature","properties":{"id":"3406","route_id":"7B","trip_id":"4456672","stop_id":"7368","stop_sequence":1,"bearing":135.0,"timestamp":1787346633},"geometry":{"type":"Point","coordinates":[-63.61233901977539,44.67158889770508]}},{"type":"Feature","properties":{"id":"3407","route_id":"90","trip_id":"4458414","stop_id":"8435","stop_sequence":1,"bearing":90.0,"timestamp":1787346633},"geometry":{"type":"Point","coordinates":[-63.57558059692383,44.65102005004883]}},{"type":"Feature","properties":{"id":"3408","route_id":"182","trip_id":"4447914","stop_id":"8958","stop_sequence":59,"bearing":152.0,"timestamp":1787346633},"geometry":{"type":"Point","coordinates":[-63.6916618347168,44.77214813232422]}},{"type":"Feature","properties":{"id":"3409","route_id":"90","trip_id":"4458434","stop_id":"9092","stop_sequence":43,"bearing":244.0,"timestamp":1787346633},"geometry":{"type":"Point","coordinates":[-63.678531646728516,44.701141357421875]}},{"type":"Feature","properties":{"id":"4004","route_id":"182","trip_id":"4447917","stop_id":"2348","stop_sequence":7,"bearing":68.0,"timestamp":1787346633},"geometry":{"type":"Point","coordinates":[-63.57754898071289,44.64289855957031]}},{"type":"Feature","properties":{"id":"4005","route_id":"6B","trip_id":"4455302","stop_id":"6340","stop_sequence":1,"bearing":135.0,"timestamp":1787346633},"geometry":{"type":"Point","coordinates":[-63.46957015991211,44.60712814331055]}},{"type":"Feature","properties":{"id":"4010","route_id":"2","trip_id":"4448475","stop_id":"6597","stop_sequence":35,"bearing":240.0,"timestamp":1787346633},"geometry":{"type":"Point","coordinates":[-63.6436882019043,44.655479431152344]}},{"type":"Feature","properties":{"id":"4016","route_id":"64","trip_id":"4454541","stop_id":"8141","stop_sequence":1,"bearing":32.0,"timestamp":1787346633},"geometry":{"type":"Point","coordinates":[-63.57929992675781,44.700321197509766]}},{"type":"Feature","properties":{"id":"4020","route_id":"7A","trip_id":"4456194","stop_id":"8207","stop_sequence":29,"bearing":315.0,"timestamp":1787346633},"geometry":{"type":"Point","coordinates":[-63.59403991699219,44.653751373291016]}},{"type":"Feature","properties":{"id":"4007","route_id":"24","trip_id":"4449348","stop_id":"8640","stop_sequence":23,"bearing":315.0,"timestamp":1787346633},"geometry":{"type":"Point","coordinates":[-63.621559143066406,44.64836883544922]}},{"type":"Feature","properties":{"id":"3414","route_id":"24","trip_id":"4449347","stop_id":"7143","stop_sequence":61,"bearing":224.0,"timestamp":1787346633},"geometry":{"type":"Point","coordinates":[-63.62345886230469,44.613548278808594]}},{"type":"Feature","properties":{"id":"4053","route_id":"7A","trip_id":"4456193","stop_id":"7378","stop_sequence":34,"bearing":304.0,"timestamp":1787346633},"geometry":{"type":"Point","coordinates":[-63.61235046386719,44.67171096801758]}},{"type":"Feature","properties":{"id":"4043","route_id":"65","trip_id":"4454712","stop_id":"8952","stop_sequence":25,"bearing":268.0,"timestamp":1787346633},"geometry":{"type":"Point","coordinates":[-63.50471878051758,44.67095184326172]}},{"type":"Feature","properties":{"id":"3253","route_id":"1","trip_id":"4446804","stop_id":"8640","stop_sequence":33,"bearing":306.0,"timestamp":1787346633},"geometry":{"type":"Point","coordinates":[-63.61465072631836,44.65211868286133]}},{"type":"Feature","properties":{"id":"3256","route_id":"84","trip_id":"4457519","stop_id":"8960","stop_sequence":1,"bearing":52.0,"timestamp":1787346633},"geometry":{"type":"Point","coordinates":[-63.691429138183594,44.77170181274414]}},{"type":"Feature","properties":{"id":"3264","route_id":"63","trip_id":"4454437","stop_id":"8943","stop_sequence":34,"bearing":225.0,"timestamp":1787346633},"geometry":{"type":"Point","coordinates":[-63.5282096862793,44.6768798828125]}},{"type":"Feature","properties":{"id":"3268","route_id":"59","trip_id":"4453962","stop_id":"6542","stop_sequence":19,"bearing":176.0,"timestamp":1787346633},"geometry":{"type":"Point","coordinates":[-63.477481842041016,44.66429138183594]}},{"type":"Feature","properties":{"id":"3286","route_id":"67","trip_id":"4454879","stop_id":"8171","stop_sequence":29,"bearing":315.0,"timestamp":1787346633},"geometry":{"type":"Point","coordinates":[-63.561279296875,44.68571853637695]}},{"type":"Feature","properties":{"id":"3288","route_id":"84","trip_id":"4457484","stop_id":"8960","stop_sequence":37,"bearing":0.0,"timestamp":1787346633},"geometry":{"type":"Point","coordinates":[-63.60811996459961,44.69871139526367]}},{"type":"Feature","properties":{"id":"3321","route_id":"84","trip_id":"4457486","stop_id":"6105","stop_sequence":1,"bearing":137.0,"timestamp":1787346633},"geometry":{"type":"Point","coordinates":[-63.57612991333008,44.65114974975586]}},{"type":"Feature","properties":{"id":"3324","route_id":"186","trip_id":"4448027","stop_id":"8959","stop_sequence":11,"bearing":300.0,"timestamp":1787346633},"geometry":{"type":"Point","coordinates":[-63.69837188720703,44.765769958496094]}},{"type":"Feature","properties":{"id":"3325","route_id":"29","trip_id":"4450060","stop_id":"6617","stop_sequence":7,"bearing":44.0,"timestamp":1787346633},"geometry":{"type":"Point","coordinates":[-63.618770599365234,44.64789962768555]}},{"type":"Feature","properties":{"id":"3326","route_id":"82","trip_id":"4457178","stop_id":"8958","stop_sequence":1,"bearing":48.0,"timestamp":1787346633},"geometry":{"type":"Point","coordinates":[-63.69691848754883,44.76934814453125]}},{"type":"Feature","properties":{"id":"3328","route_id":"30A","trip_id":"4450743","stop_id":"9030","stop_sequence":20,"bearing":344.0,"timestamp":1787346633},"geometry":{"type":"Point","coordinates":[-63.6752815246582,44.66836929321289]}},{"type":"Feature","properties":{"id":"3329","route_id":"182","trip_id":"4447918","stop_id":"8515","stop_sequence":10,"bearing":32.0,"timestamp":1787346633},"geometry":{"type":"Point","coordinates":[-63.61027908325195,44.679569244384766]}},{"type":"Feature","properties":{"id":"3330","route_id":"58","trip_id":"4453805","stop_id":"8943","stop_sequence":24,"bearing":90.0,"timestamp":1787346633},"geometry":{"type":"Point","coordinates":[-63.508399963378906,44.6784782409668]}},{"type":"Feature","properties":{"id":"3332","route_id":"9A","trip_id":"4458956_1","stop_id":"8641","stop_sequence":35,"bearing":90.0,"timestamp":1787346633},"geometry":{"type":"Point","coordinates":[-63.615230560302734,44.64543151855469]}},{"type":"Feature","properties":{"id":"3332","route_id":"9A","trip_id":"4458956_1","stop_id":"8641","stop_sequence":35,"bearing":90.0,"timestamp":1787346633},"geometry":{"type":"Point","coordinates":[-63.615230560302734,44.64543151855469]}},{"type":"Feature","properties":{"id":"3334","route_id":"29","trip_id":"4450107","stop_id":"2348","stop_sequence":15,"bearing":248.0,"timestamp":1787346633},"geometry":{"type":"Point","coordinates":[-63.57548141479492,44.6511116027832]}},{"type":"Feature","properties":{"id":"3372","route_id":"9A","trip_id":"4458894","stop_id":"6798","stop_sequence":44,"bearing":148.0,"timestamp":1787346633},"geometry":{"type":"Point","coordinates":[-63.613441467285156,44.60559844970703]}},{"type":"Feature","properties":{"id":"3382","route_id":"7B","trip_id":"4456596","stop_id":"6087","stop_sequence":1,"bearing":315.0,"timestamp":1787346633},"geometry":{"type":"Point","coordinates":[-63.598880767822266,44.6627197265625]}},{"type":"Feature","properties":{"id":"3400","route_id":"56","trip_id":"4453617","stop_id":"7608","stop_sequence":1,"bearing":132.0,"timestamp":1787346633},"geometry":{"type":"Point","coordinates":[-63.564151763916016,44.67736053466797]}},{"type":"Feature","properties":{"id":"3401","route_id":"3","trip_id":"4450510","stop_id":"7614","stop_sequence":35,"bearing":315.0,"timestamp":1787346633},"geometry":{"type":"Point","coordinates":[-63.5750617980957,44.670738220214844]}},{"type":"Feature","properties":{"id":"3404","route_id":"6B","trip_id":"4455301","stop_id":"7604","stop_sequence":47,"bearing":308.0,"timestamp":1787346633},"geometry":{"type":"Point","coordinates":[-63.56978988647461,44.66542053222656]}},{"type":"Feature","properties":{"id":"4021","route_id":"93","trip_id":"4458661","stop_id":"6238","stop_sequence":49,"bearing":300.0,"timestamp":1787346633},"geometry":{"type":"Point","coordinates":[-63.67107009887695,44.71089172363281]}},{"type":"Feature","properties":{"id":"4022","route_id":"135","trip_id":"4447638","stop_id":"8220","stop_sequence":1,"bearing":324.0,"timestamp":1787346633},"geometry":{"type":"Point","coordinates":[-63.57468032836914,44.62636184692383]}},{"type":"Feature","properties":{"id":"4033","route_id":"138","trip_id":"4447721","stop_id":"6087","stop_sequence":9,"bearing":340.0,"timestamp":1787346633},"geometry":{"type":"Point","coordinates":[-63.57527160644531,44.64950180053711]}},{"type":"Feature","properties":{"id":"4038","route_id":"182","trip_id":"4447916","stop_id":"6297","stop_sequence":20,"bearing":0.0,"timestamp":1787346633},"geometry":{"type":"Point","coordinates":[-63.663230895996094,44.75431823730469]}},{"type":"Feature","properties":{"id":"4042","route_id":"2","trip_id":"4448474","stop_id":"9104","stop_sequence":42,"bearing":180.0,"timestamp":1787346633},"geometry":{"type":"Point","coordinates":[-63.64957046508789,44.65188980102539]}},{"type":"Feature","properties":{"id":"4056","route_id":"22","trip_id":"4449023","stop_id":"9051","stop_sequence":23,"bearing":268.0,"timestamp":1787346633},"geometry":{"type":"Point","coordinates":[-63.630828857421875,44.6320915222168]}},{"type":"Feature","properties":{"id":"4037","route_id":"85","trip_id":"4457690","stop_id":"8967","stop_sequence":26,"bearing":143.0,"timestamp":1787346633},"geometry":{"type":"Point","coordinates":[-63.6973991394043,44.77769088745117]}},{"type":"Feature","properties":{"id":"3270","route_id":"85","trip_id":"4457697","stop_id":"7233","stop_sequence":1,"bearing":335.0,"timestamp":1787346633},"geometry":{"type":"Point","coordinates":[-63.708309173583984,44.78205108642578]}},{"type":"Feature","properties":{"id":"3273","route_id":"64","trip_id":"4454575","stop_id":"2100","stop_sequence":25,"bearing":164.0,"timestamp":1787346633},"geometry":{"type":"Point","coordinates":[-63.584861755371094,44.71187973022461]}},{"type":"Feature","properties":{"id":"3297","route_id":"370","trip_id":"4451296","stop_id":"6108","stop_sequence":1,"bearing":308.0,"timestamp":1787346633},"geometry":{"type":"Point","coordinates":[-63.57572937011719,44.669071197509766]}},{"type":"Feature","properties":{"id":"3299","route_id":"9A","trip_id":"4458895","stop_id":"6798","stop_sequence":44,"bearing":180.0,"timestamp":1787346633},"geometry":{"type":"Point","coordinates":[-63.61676025390625,44.61193084716797]}},{"type":"Feature","properties":{"id":"3393","route_id":"168A","trip_id":"4447841","stop_id":"8950","stop_sequence":14,"bearing":116.0,"timestamp":1787346633},"geometry":{"type":"Point","coordinates":[-63.51451110839844,44.67058181762695]}},{"type":"Feature","properties":{"id":"4001","route_id":"67","trip_id":"4454856","stop_id":"9076","stop_sequence":6,"bearing":128.0,"timestamp":1787346633},"geometry":{"type":"Point","coordinates":[-63.546321868896484,44.681800842285156]}},{"type":"Feature","properties":{"id":"4006","route_id":"9B","trip_id":"4459131","stop_id":"6857","stop_sequence":38,"bearing":135.0,"timestamp":1787346633},"geometry":{"type":"Point","coordinates":[-63.6185417175293,44.64691925048828]}},{"type":"Feature","properties":{"id":"4012","route_id":"21","trip_id":"4448739","stop_id":"9106","stop_sequence":40,"bearing":80.0,"timestamp":1787346633},"geometry":{"type":"Point","coordinates":[-63.676429748535156,44.657901763916016]}},{"type":"Feature","properties":{"id":"4024","route_id":"168B","trip_id":"4447865","stop_id":"6044","stop_sequence":28,"bearing":136.0,"timestamp":1787346633},"geometry":{"type":"Point","coordinates":[-63.48257064819336,44.677310943603516]}},{"type":"Feature","properties":{"id":"4034","route_id":"185","trip_id":"4447998","stop_id":"8363","stop_sequence":1,"bearing":180.0,"timestamp":1787346633},"geometry":{"type":"Point","coordinates":[-63.5859489440918,44.64719009399414]}},{"type":"Feature","properties":{"id":"4023","route_id":"72","trip_id":"4455709","stop_id":"2290","stop_sequence":57,"bearing":80.0,"timestamp":1787346633},"geometry":{"type":"Point","coordinates":[-63.56550979614258,44.70037841796875]}},{"type":"Feature","properties":{"id":"4027","route_id":"29","trip_id":"4450108","stop_id":"8409","stop_sequence":1,"bearing":160.0,"timestamp":1787346633},"geometry":{"type":"Point","coordinates":[-63.57836151123047,44.63954162597656]}},{"type":"Feature","properties":{"id":"4032","route_id":"6B","trip_id":"4455331","stop_id":"7604","stop_sequence":1,"bearing":148.0,"timestamp":1787346633},"geometry":{"type":"Point","coordinates":[-63.57450866699219,44.67070007324219]}},{"type":"Feature","properties":{"id":"4046","route_id":"182","trip_id":"4447915","stop_id":"8359","stop_sequence":44,"bearing":268.0,"timestamp":1787346633},"geometry":{"type":"Point","coordinates":[-63.682308197021484,44.78396987915039]}},{"type":"Feature","properties":{"id":"4030","route_id":"83","trip_id":"4457325","stop_id":"8967","stop_sequence":21,"bearing":188.0,"timestamp":1787346633},"geometry":{"type":"Point","coordinates":[-63.715030670166016,44.78173828125]}},{"type":"Feature","properties":{"id":"4051","route_id":"10A","trip_id":"4446908","stop_id":"6106","stop_sequence":17,"bearing":0.0,"timestamp":1787346633},"geometry":{"type":"Point","coordinates":[-63.57419967651367,44.67060089111328]}},{"type":"Feature","properties":{"id":"4013","route_id":"28","trip_id":"4449786","stop_id":"6564","stop_sequence":28,"bearing":148.0,"timestamp":1787346633},"geometry":{"type":"Point","coordinates":[-63.64530944824219,44.65235137939453]}},{"type":"Feature","properties":{"id":"4015","route_id":"85","trip_id":"4457689","stop_id":"8967","stop_sequence":26,"bearing":320.0,"timestamp":1787346633},"geometry":{"type":"Point","coordinates":[-63.69411087036133,44.77244186401367]}},{"type":"Feature","properties":{"id":"4025","route_id":"10C","trip_id":"4447467","stop_id":"8162","stop_sequence":58,"bearing":76.0,"timestamp":1787346633},"geometry":{"type":"Point","coordinates":[-63.52619171142578,44.68498992919922]}},{"type":"Feature","properties":{"id":"4026","route_id":"87","trip_id":"4458027","stop_id":"7615","stop_sequence":1,"bearing":52.0,"timestamp":1787346633},"geometry":{"type":"Point","coordinates":[-63.57563018798828,44.671329498291016]}},{"type":"Feature","properties":{"id":"4002","route_id":"22","trip_id":"4449060","stop_id":"8641","stop_sequence":20,"bearing":80.0,"timestamp":1787346633},"geometry":{"type":"Point","coordinates":[-63.621131896972656,44.64162063598633]}},{"type":"Feature","properties":{"id":"4036","route_id":"415","trip_id":"4452052","stop_id":"8120","stop_sequence":15,"bearing":308.0,"timestamp":1787346633},"geometry":{"type":"Point","coordinates":[-63.5643196105957,44.6072998046875]}},{"type":"Feature","properties":{"id":"4048","route_id":"93","trip_id":"4458662","stop_id":"2348","stop_sequence":1,"bearing":260.0,"timestamp":1787346633},"geometry":{"type":"Point","coordinates":[-63.57569122314453,44.6509895324707]}},{"type":"Feature","properties":{"id":"4050","route_id":"138","trip_id":"4447720","stop_id":"6032","stop_sequence":17,"bearing":225.0,"timestamp":1787346633},"geometry":{"type":"Point","coordinates":[-63.62215042114258,44.66292190551758]}},{"type":"Feature","properties":{"id":"4054","route_id":"5","trip_id":"4452510","stop_id":"6030","stop_sequence":14,"bearing":224.0,"timestamp":1787346633},"geometry":{"type":"Point","coordinates":[-63.54301834106445,44.6693115234375]}},{"type":"Feature","properties":{"id":"4059","route_id":"135","trip_id":"4447637","stop_id":"6032","stop_sequence":17,"bearing":312.0,"timestamp":1787346633},"geometry":{"type":"Point","coordinates":[-63.60036087036133,44.663658142089844]}},{"type":"Feature","properties":{"id":"3311","route_id":"29","trip_id":"4450105","stop_id":"6564","stop_sequence":47,"bearing":191.0,"timestamp":1787346633},"geometry":{"type":"Point","coordinates":[-63.62773132324219,44.65596008300781]}},{"type":"Feature","properties":{"id":"3312","route_id":"10C","trip_id":"4447515_1","stop_id":"8172","stop_sequence":9,"bearing":315.0,"timestamp":1787346633},"geometry":{"type":"Point","coordinates":[-63.56111145019531,44.68558120727539]}},{"type":"Feature","properties":{"id":"3312","route_id":"10C","trip_id":"4447515_1","stop_id":"8172","stop_sequence":9,"bearing":315.0,"timestamp":1787346633},"geometry":{"type":"Point","coordinates":[-63.56111145019531,44.68558120727539]}},{"type":"Feature","properties":{"id":"3345","route_id":"61","trip_id":"4454108","stop_id":"6478","stop_sequence":37,"bearing":268.0,"timestamp":1787346633},"geometry":{"type":"Point","coordinates":[-63.49946975708008,44.671329498291016]}},{"type":"Feature","properties":{"id":"3347","route_id":"54","trip_id":"4453228","stop_id":"7607","stop_sequence":33,"bearing":4.0,"timestamp":1787346633},"geometry":{"type":"Point","coordinates":[-63.57453155517578,44.667999267578125]}},{"type":"Feature","properties":{"id":"3352","route_id":"51A","trip_id":"4452737","stop_id":"7616","stop_sequence":1,"bearing":68.0,"timestamp":1787346633},"geometry":{"type":"Point","coordinates":[-63.57387924194336,44.670501708984375]}},{"type":"Feature","properties":{"id":"3367","route_id":"123","trip_id":"4447564","stop_id":"2013","stop_sequence":45,"bearing":136.0,"timestamp":1787346633},"geometry":{"type":"Point","coordinates":[-63.75202178955078,44.65874099731445]}},{"type":"Feature","properties":{"id":"3371","route_id":"9A","trip_id":"4458897","stop_id":"8640","stop_sequence":20,"bearing":248.0,"timestamp":1787346633},"geometry":{"type":"Point","coordinates":[-63.59495162963867,44.646141052246094]}},{"type":"Feature","properties":{"id":"3389","route_id":"84","trip_id":"4457485","stop_id":"6297","stop_sequence":14,"bearing":61.0,"timestamp":1787346633},"geometry":{"type":"Point","coordinates":[-63.66307830810547,44.754451751708984]}},{"type":"Feature","properties":{"id":"4041","route_id":"182","trip_id":"4447919","stop_id":"8363","stop_sequence":1,"bearing":225.0,"timestamp":1787346633},"geometry":{"type":"Point","coordinates":[-63.585838317871094,44.64738845825195]}},{"type":"Feature","properties":{"id":"3210","route_id":"62","trip_id":"4454251","stop_id":"7601","stop_sequence":1,"bearing":90.0,"timestamp":1787346633},"geometry":{"type":"Point","coordinates":[-63.57509994506836,44.671058654785156]}},{"type":"Feature","properties":{"id":"3223","route_id":"165","trip_id":"4447816","stop_id":"7602","stop_sequence":10,"bearing":90.0,"timestamp":1787346633},"geometry":{"type":"Point","coordinates":[-63.57489013671875,44.67097854614258]}},{"type":"Feature","properties":{"id":"3226","route_id":"2","trip_id":"4448476","stop_id":"6563","stop_sequence":26,"bearing":296.0,"timestamp":1787346633},"geometry":{"type":"Point","coordinates":[-63.623939514160156,44.649471282958984]}},{"type":"Feature","properties":{"id":"3227","route_id":"29","trip_id":"4450106","stop_id":"8560","stop_sequence":33,"bearing":124.0,"timestamp":1787346633},"geometry":{"type":"Point","coordinates":[-63.620418548583984,44.66054916381836]}},{"type":"Feature","properties":{"id":"3230","route_id":"21","trip_id":"4448740","stop_id":"6624","stop_sequence":7,"bearing":232.0,"timestamp":1787346633},"geometry":{"type":"Point","coordinates":[-63.73691177368164,44.656429290771484]}},{"type":"Feature","properties":{"id":"3237","route_id":"4","trip_id":"4451886","stop_id":"7144","stop_sequence":1,"bearing":315.0,"timestamp":1787346633},"geometry":{"type":"Point","coordinates":[-63.58953857421875,44.63616943359375]}},{"type":"Feature","properties":{"id":"4019","route_id":"123","trip_id":"4447571","stop_id":"2304","stop_sequence":6,"bearing":135.0,"timestamp":1787346633},"geometry":{"type":"Point","coordinates":[-63.58327102661133,44.64936065673828]}},{"type":"Feature","properties":{"id":"4035","route_id":"3","trip_id":"4450448","stop_id":"6032","stop_sequence":51,"bearing":4.0,"timestamp":1787346633},"geometry":{"type":"Point","coordinates":[-63.630619049072266,44.65058135986328]}},{"type":"Feature","properties":{"id":"4047","route_id":"186","trip_id":"4448026","stop_id":"2123","stop_sequence":35,"bearing":316.0,"timestamp":1787346633},"geometry":{"type":"Point","coordinates":[-63.68069076538086,44.840450286865234]}},{"type":"Feature","properties":{"id":"3279","route_id":"3","trip_id":"4450447","stop_id":"9110","stop_sequence":62,"bearing":0.0,"timestamp":1787346633},"geometry":{"type":"Point","coordinates":[-63.597450256347656,44.652549743652344]}},{"type":"Feature","properties":{"id":"3281","route_id":"165","trip_id":"4447815","stop_id":"2205","stop_sequence":24,"bearing":135.0,"timestamp":1787346633},"geometry":{"type":"Point","coordinates":[-63.49066925048828,44.66014862060547]}},{"type":"Feature","properties":{"id":"3283","route_id":"6C","trip_id":"4455492","stop_id":"7486","stop_sequence":22,"bearing":256.0,"timestamp":1787346633},"geometry":{"type":"Point","coordinates":[-63.494041442871094,44.611820220947266]}},{"type":"Feature","properties":{"id":"3287","route_id":"55","trip_id":"4453357","stop_id":"2203","stop_sequence":34,"bearing":45.0,"timestamp":1787346633},"geometry":{"type":"Point","coordinates":[-63.54545974731445,44.71493148803711]}},{"type":"Feature","properties":{"id":"3292","route_id":"67","trip_id":"4454880","stop_id":"8964","stop_sequence":1,"bearing":336.0,"timestamp":1787346633},"geometry":{"type":"Point","coordinates":[-63.54764938354492,44.652069091796875]}},{"type":"Feature","properties":{"id":"3307","route_id":"62","trip_id":"4454274","stop_id":"8946","stop_sequence":8,"bearing":260.0,"timestamp":1787346633},"geometry":{"type":"Point","coordinates":[-63.53559112548828,44.66484069824219]}},{"type":"Feature","properties":{"id":"3310","route_id":"55","trip_id":"4453376","stop_id":"6030","stop_sequence":30,"bearing":225.0,"timestamp":1787346633},"geometry":{"type":"Point","coordinates":[-63.568870544433594,44.66501998901367]}},{"type":"Feature","properties":{"id":"3318","route_id":"28","trip_id":"4449754","stop_id":"9105","stop_sequence":32,"bearing":288.0,"timestamp":1787346633},"geometry":{"type":"Point","coordinates":[-63.65354919433594,44.650569915771484]}},{"type":"Feature","properties":{"id":"3320","route_id":"68","trip_id":"4455024","stop_id":"8951","stop_sequence":31,"bearing":16.0,"timestamp":1787346633},"geometry":{"type":"Point","coordinates":[-63.48392868041992,44.67884826660156]}},{"type":"Feature","properties":{"id":"3335","route_id":"56","trip_id":"4453616","stop_id":"6014","stop_sequence":33,"bearing":135.0,"timestamp":1787346633},"geometry":{"type":"Point","coordinates":[-63.607791900634766,44.699371337890625]}},{"type":"Feature","properties":{"id":"3337","route_id":"159","trip_id":"4447763","stop_id":"8941","stop_sequence":13,"bearing":96.0,"timestamp":1787346633},"geometry":{"type":"Point","coordinates":[-63.549068450927734,44.66741180419922]}},{"type":"Feature","properties":{"id":"3346","route_id":"5","trip_id":"4452441","stop_id":"7603","stop_sequence":9,"bearing":135.0,"timestamp":1787346633},"geometry":{"type":"Point","coordinates":[-63.57474899291992,44.67082977294922]}},{"type":"Feature","properties":{"id":"3349","route_id":"28","trip_id":"4449755","stop_id":"8641","stop_sequence":1,"bearing":90.0,"timestamp":1787346633},"geometry":{"type":"Point","coordinates":[-63.620361328125,44.64796829223633]}},{"type":"Feature","properties":{"id":"3362","route_id":"91","trip_id":"4458613","stop_id":"2145","stop_sequence":31,"bearing":225.0,"timestamp":1787346633},"geometry":{"type":"Point","coordinates":[-63.66699981689453,44.69752883911133]}},{"type":"Feature","properties":{"id":"3369","route_id":"90","trip_id":"4458478","stop_id":"8435","stop_sequence":63,"bearing":90.0,"timestamp":1787346633},"geometry":{"type":"Point","coordinates":[-63.574859619140625,44.64080047607422]}},{"type":"Feature","properties":{"id":"3370","route_id":"185","trip_id":"4447997","stop_id":"8959","stop_sequence":11,"bearing":332.0,"timestamp":1787346633},"geometry":{"type":"Point","coordinates":[-63.60725021362305,44.70138931274414]}},{"type":"Feature","properties":{"id":"3374","route_id":"8","trip_id":"4456993","stop_id":"6107","stop_sequence":1,"bearing":140.0,"timestamp":1787346633},"geometry":{"type":"Point","coordinates":[-63.57640075683594,44.65132141113281]}},{"type":"Feature","properties":{"id":"3377","route_id":"10A","trip_id":"4446931","stop_id":"7144","stop_sequence":23,"bearing":160.0,"timestamp":1787346633},"geometry":{"type":"Point","coordinates":[-63.57527160644531,44.649600982666016]}},{"type":"Feature","properties":{"id":"3380","route_id":"161","trip_id":"4447797","stop_id":"8950","stop_sequence":14,"bearing":168.0,"timestamp":1787346633},"geometry":{"type":"Point","coordinates":[-63.537811279296875,44.670448303222656]}},{"type":"Feature","properties":{"id":"3381","route_id":"90","trip_id":"4458461","stop_id":"2236","stop_sequence":1,"bearing":132.0,"timestamp":1787346633},"geometry":{"type":"Point","coordinates":[-63.70526123046875,44.70418167114258]}},{"type":"Feature","properties":{"id":"3391","route_id":"7A","trip_id":"4456124","stop_id":"6108","stop_sequence":24,"bearing":132.0,"timestamp":1787346633},"geometry":{"type":"Point","coordinates":[-63.59260177612305,44.658329010009766]}},{"type":"Feature","properties":{"id":"4055","route_id":"3","trip_id":"4450450","stop_id":"7606","stop_sequence":29,"bearing":48.0,"timestamp":1787346633},"geometry":{"type":"Point","coordinates":[-63.57600021362305,44.67100143432617]}},{"type":"Feature","properties":{"id":"4057","route_id":"90","trip_id":"4458479","stop_id":"6216","stop_sequence":34,"bearing":132.0,"timestamp":1787346633},"geometry":{"type":"Point","coordinates":[-63.647010803222656,44.67462921142578]}}]}